FLOCK 3P-78             
1 42047U 17008DD  19198.11509082  .00001554  00000-0  63275-4 0  9999
2 42047  97.4076 265.2251 0009068  52.0379 308.1678 15.25963147133467
FLOCK 3P-74             
1 42048U 17008DE  19197.77400879  .00001135  00000-0  47673-4 0  9994
2 42048  97.4084 264.8059 0009660  54.8542 305.3600 15.25468093133406
FLOCK 3P-31             
1 42049U 17008DF  19198.23416406  .00000980  00000-0  41544-4 0  9998
2 42049  97.4053 264.9637 0009152  51.5371 308.6687 15.25466672132935
FLOCK 3P-83             
1 42050U 17008DG  19198.17055513  .00001005  00000-0  42534-4 0  9990
2 42050  97.4075 265.1304 0009492  54.2791 305.9328 15.25461511134197
FLOCK 3P-72             
1 42051U 17008DH  19197.89294563  .00001562  00000-0  63338-4 0  9992
2 42051  97.4090 265.1389 0008942  54.9220 305.2855 15.26111234131753
FLOCK 2K-03             
1 42850U 17042AB  19197.90370348  .00002169  00000-0  57639-4 0  9996
2 42850  96.9370  79.0605 0011553 116.2627 243.9808 15.39213292112300
FLOCK 2K-04             
1 42851U 17042AC  19198.43573185  .00002056  00000-0  53802-4 0  9993
2 42851  96.9361  79.8293 0011453 116.4310 243.8113 15.39741990112402
FLOCK 2K-01             
1 42852U 17042AD  19197.90344849  .00003935  00000-0  10254-3 0  9998
2 42852  96.9367  79.0478 0011281 116.3751 243.8655 15.39349077112303
FLOCK 2K-02             
1 42853U 17042AE  19197.89796331  .00002651  00000-0  74290-4 0  9999
2 42853  96.9370  77.1465 0011936 121.1851 239.0566 15.37366584112167
FLOCK 2K-47             
1 42854U 17042AF  19197.64083439  .00001579  00000-0  42477-4 0  9991
2 42854  96.9367  78.8116 0011105 115.7985 244.4409 15.39221479112262
FLOCK 2K-48             
1 42855U 17042AG  19198.21832904  .00003087  00000-0  80623-4 0  9996
2 42855  96.9366  79.3942 0011032 113.7925 246.4480 15.39443357112358
FLOCK 2K-45             
1 42856U 17042AH  19197.89690623  .00001595  00000-0  42894-4 0  9990
2 42856  96.9364  79.0589 0011057 114.2528 245.9875 15.39218689112308
FLOCK 2K-24             
1 42857U 17042AJ  19197.89763020  .00003478  00000-0  88721-4 0  9994
2 42857  96.9359  79.0586 0011058 111.7648 248.4777 15.40080791112308
FLOCK 2K-46             
1 42858U 17042AK  19197.90088931  .00003356  00000-0  86057-4 0  9993
2 42858  96.9368  79.2469 0011109 112.7977 247.4445 15.39943360112314
FLOCK 2K-23             
1 42859U 17042AL  19197.89027137  .00002282  00000-0  60513-4 0  9999
2 42859  96.9375  79.1163 0011402 114.7608 245.4826 15.39221753112307
FLOCK 2K-21             
1 42860U 17042AM  19198.47997539  .00001542  00000-0  41517-4 0  9999
2 42860  96.9371  79.6555 0011271 113.2220 247.0215 15.39217618112397
FLOCK 2K-22             
1 42861U 17042AN  19198.44237559  .00003967  00000-0  98000-4 0  9998
2 42861  96.9379  80.1869 0011081 110.6823 249.5614 15.40977240112420
FLOCK 2K-07             
1 42862U 17042AP  19198.21724472  .00001670  00000-0  44796-4 0  9991
2 42862  96.9373  79.4464 0011500 113.5362 246.7095 15.39224718112361
FLOCK 2K-08             
1 42863U 17042AQ  19197.88781563  .00001525  00000-0  41082-4 0  9992
2 42863  96.9367  79.0981 0011461 116.0018 244.2410 15.39219201112306
FLOCK 2K-05             
1 42864U 17042AR  19197.85435823  .00003579  00000-0  89832-4 0  9991
2 42864  96.9368  79.4580 0011062 113.9006 246.3402 15.40556860112320
FLOCK 2K-40             
1 42865U 17042AS  19197.88585783  .00001559  00000-0  41959-4 0  9990
2 42865  96.9374  79.1474 0011460 115.5796 244.6637 15.39224491112302
FLOCK 2K-39             
1 42866U 17042AT  19197.88360185  .00001673  00000-0  44874-4 0  9994
2 42866  96.9371  79.1232 0011490 114.9046 245.3396 15.39233703112302
FLOCK 2K-37             
1 42867U 17042AU  19197.88211619  .00001492  00000-0  40230-4 0  9993
2 42867  96.9369  79.1319 0011606 115.3625 244.8825 15.39218111112300
FLOCK 2K-38             
1 42868U 17042AV  19198.19497460  .00003602  00000-0  93439-4 0  9993
2 42868  96.9370  79.4470 0011614 111.9013 248.3470 15.39536141112352
FLOCK 2K-31             
1 42869U 17042AW  19197.61634882  .00001598  00000-0  42978-4 0  9995
2 42869  96.9368  78.8682 0011623 112.5982 247.6496 15.39197590112261
FLOCK 2K-32             
1 42870U 17042AX  19197.87397749  .00001647  00000-0  44223-4 0  9993
2 42870  96.9367  79.1069 0011552 112.7080 247.5390 15.39217580112306
FLOCK 2K-29             
1 42871U 17042AY  19198.52224534  .00001561  00000-0  42033-4 0  9990
2 42871  96.9368  79.7498 0011718 109.8147 250.4364 15.39209240112404
FLOCK 2K-30             
1 42872U 17042AZ  19197.86980864  .00001739  00000-0  46570-4 0  9999
2 42872  96.9375  79.1419 0011661 112.4376 247.8107 15.39221680112295
FLOCK 2K-44             
1 42873U 17042BA  19198.25761973  .00001588  00000-0  42661-4 0  9991
2 42873  96.9364  79.4910 0012573 102.3580 257.9075 15.39232132112369
FLOCK 2K-43             
1 42874U 17042BB  19198.44573372  .00000906  00000-0  27955-4 0  9999
2 42874  96.9363  77.5503 0014045 113.0663 247.2064 15.35878631112246
FLOCK 2K-41             
1 42875U 17042BC  19198.43813437  .00002267  00000-0  60088-4 0  9994
2 42875  96.9371  79.7260 0013049 104.0080 256.2618 15.39221318112395
FLOCK 2K-36             
1 42876U 17042BD  19198.50688953  .00003379  00000-0  86079-4 0  9999
2 42876  96.9365  79.7893 0012893 104.3309 255.9371 15.40115928112409
FLOCK 2K-35             
1 42877U 17042BE  19197.47475722  .00001687  00000-0  45245-4 0  9993
2 42877  96.9373  78.7955 0012920 106.3898 253.8770 15.39203406112242
FLOCK 2K-34             
1 42878U 17042BF  19197.52934832  .00003526  00000-0  91562-4 0  9999
2 42878  96.9372  78.8488 0012671 107.4453 252.8181 15.39506469112257
FLOCK 2K-33             
1 42879U 17042BG  19197.88208585  .00004488  00000-0  10763-3 0  9999
2 42879  96.9368  79.9822 0012362 103.1192 257.1437 15.41794950112368
FLOCK 2K-28             
1 42880U 17042BH  19198.44995095  .00000977  00000-0  29990-4 0  9995
2 42880  96.9370  77.5844 0013942 111.5113 248.7619 15.35858793112246
FLOCK 2K-27             
1 42882U 17042BK  19197.90326011  .00004069  00000-0  10279-3 0  9998
2 42882  96.9366  79.2653 0012893 106.6152 253.6512 15.40260727112317
FLOCK 2K-26             
1 42883U 17042BL  19198.48782827  .00003098  00000-0  79719-4 0  9990
2 42883  96.9364  79.9243 0013146 103.0423 257.2293 15.39869174112418
FLOCK 2K-25             
1 42884U 17042BM  19197.86202975  .00001643  00000-0  44135-4 0  9991
2 42884  96.9370  79.1429 0012970 105.6873 254.5805 15.39194877112303
FLOCK 2K-20             
1 42885U 17042BN  19197.89653524  .00003002  00000-0  77790-4 0  9999
2 42885  96.9371  79.2631 0013241 104.8217 255.4498 15.39677461112310
FLOCK 2K-19             
1 42886U 17042BP  19197.85955300  .00001726  00000-0  46228-4 0  9996
2 42886  96.9373  79.1797 0013391 105.7593 254.5132 15.39205123112304
FLOCK 2K-18             
1 42887U 17042BQ  19197.91578942  .00002245  00000-0  59527-4 0  9990
2 42887  96.9374  79.2428 0013511 104.7944 255.4801 15.39214157112312
FLOCK 2K-17             
1 42888U 17042BR  19198.23755385  .00003190  00000-0  81475-4 0  9992
2 42888  96.9360  79.6245 0013075 102.2035 258.0678 15.40081204112372
FLOCK 2K-16             
1 42889U 17042BS  19197.85781783  .00001836  00000-0  49056-4 0  9995
2 42889  96.9380  79.1825 0013116 104.0996 256.1709 15.39212857112301
FLOCK 2K-15             
1 42890U 17042BT  19197.91292440  .00002355  00000-0  62388-4 0  9991
2 42890  96.9386  79.3147 0013435 104.3768 255.8971 15.39203492112315
FLOCK 2K-13             
1 42891U 17042BU  19198.44345289  .00003586  00000-0  89977-4 0  9991
2 42891  96.9390  79.9284 0013127  98.7713 261.5022 15.40544258112404
FLOCK 2K-14             
1 42892U 17042BV  19198.52298211  .00003524  00000-0  90413-4 0  9992
2 42892  96.9363  79.8625 0013237 101.2616 259.0120 15.39871845112412
FLOCK 2K-12             
1 42893U 17042BW  19197.90776486  .00001653  00000-0  44333-4 0  9990
2 42893  96.9376  79.2817 0013417 104.6729 255.6006 15.39228217112319
FLOCK 2K-11             
1 42894U 17042BX  19198.18019796  .00001603  00000-0  43101-4 0  9993
2 42894  96.9372  79.4870 0013358 100.4474 259.8278 15.39194233112353
FLOCK 2K-10             
1 42895U 17042BY  19198.17006141  .00002296  00000-0  60822-4 0  9991
2 42895  96.9370  79.4658 0013479 102.1567 258.1190 15.39227472112359
FLOCK 2K-09             
1 42896U 17042BZ  19198.27903461  .00002189  00000-0  56286-4 0  9994
2 42896  96.9359  80.0438 0013044 100.4328 259.8390 15.40199206112574
FLOCK 2K-06             
1 42897U 17042CA  19197.87888412  .00001665  00000-0  44665-4 0  9994
2 42897  96.9369  79.1314 0011666 114.0654 246.1815 15.39234594112309
SKYSAT-C11              
1 42987U 17068A   19197.89210436  .00000328  00000-0  17519-4 0  9992
2 42987  97.4312 311.1960 0010167 114.6893 245.5435 15.21763543 94688
SKYSAT-C10              
1 42988U 17068B   19197.87856917  .00000290  00000-0  15817-4 0  9998
2 42988  97.4342 311.0827 0005217 128.4227 231.7478 15.21846251 94689
SKYSAT-C9               
1 42989U 17068C   19198.39501222  .00000262  00000-0  14577-4 0  9994
2 42989  97.4363 312.0621 0001811  98.1497 261.9944 15.21845366 94784
SKYSAT-C8               
1 42990U 17068D   19197.85937188  .00000283  00000-0  15517-4 0  9998
2 42990  97.4372 311.4285 0004489 153.9572 206.1890 15.21758528 94697
SKYSAT-C7               
1 42991U 17068E   19197.84830211  .00000289  00000-0  15817-4 0  9996
2 42991  97.4366 311.4278 0006111 167.8267 192.3117 15.21766790 94690
SKYSAT-C6               
1 42992U 17068F   19198.49437964  .00000256  00000-0  14361-4 0  9994
2 42992  97.4368 312.2631 0010271 232.1286 127.9022 15.21796107 94801
FLOCK 3M-1              
1 42995U 17068J   19197.86850503  .00001180  00000-0  57273-4 0  9991
2 42995  97.3806 306.1217 0016114 202.4487 157.6045 15.20310375 94574
